[{"OBJECT_NAME":"AEROCUBE 8D","OBJECT_ID":"2016-067E","EPOCH":"2026-03-09T12:44:23.382816","MEAN_MOTION":15.22872123,"ECCENTRICITY":0.000476,"INCLINATION":98.083,"RA_OF_ASC_NODE":291.1456,"ARG_OF_PERICENTER":111.8703,"MEAN_ANOMALY":248.3038,"EPHEMERIS_TYPE":0,"CLASSIFICATION_TYPE":"U","NORAD_CAT_ID":41852,"ELEMENT_SET_NO":999,"REV_AT_EPOCH":51089,"BSTAR":0.00039318756,"MEAN_MOTION_DOT":9.137e-5,"MEAN_MOTION_DDOT":0},{"OBJECT_NAME":"NASBSAT-1","OBJECT_ID":"2025-313AT","EPOCH":"2026-03-09T22:27:05.348448","MEAN_MOTION":15.23392986,"ECCENTRICITY":0.00090189,"INCLINATION":97.4003,"RA_OF_ASC_NODE":145.3477,"ARG_OF_PERICENTER":353.1124,"MEAN_ANOMALY":6.9987,"EPHEMERIS_TYPE":0,"CLASSIFICATION_TYPE":"U","NORAD_CAT_ID":67289,"ELEMENT_SET_NO":999,"REV_AT_EPOCH":1086,"BSTAR":0.00068712431,"MEAN_MOTION_DOT":0.00016315,"MEAN_MOTION_DDOT":0}]
